<?xml version="1.0"?><gpx version="1.1" creator="test" xmlns="http://www.topografix.com/GPX/1/1"><trk><name>Test route</name><trkseg><trkpt lat="-33.95000000000001" lon="151.15"></trkpt><trkpt lat="-33.95000325189349" lon="151.15021633259522"></trkpt><trkpt lat="-33.9500065034071" lon="151.1504326652251"></trkpt><trkpt lat="-33.95000975454083" lon="151.1506489978897"></trkpt><trkpt lat="-33.95001300529467" lon="151.15086533058894"></trkpt><trkpt lat="-33.95001625566862" lon="151.15108166332288"></trkpt><trkpt lat="-33.950019505662695" lon="151.1512979960915"></trkpt><trkpt lat="-33.95002275527687" lon="151.1515143288948"></trkpt><trkpt lat="-33.95002600451118" lon="151.15173066173276"></trkpt><trkpt lat="-33.950029253365585" lon="151.15194699460537"></trkpt><trkpt lat="-33.95003250184011" lon="151.15216332751265"></trkpt><trkpt lat="-33.95003574993475" lon="151.1523796604546"></trkpt><trkpt lat="-33.95003899764951" lon="151.1525959934312"></trkpt><trkpt lat="-33.95004224498438" lon="151.1528123264424"></trkpt><trkpt lat="-33.95004549193936" lon="151.15302865948829"></trkpt><trkpt lat="-33.950048738514454" lon="151.1532449925688"></trkpt><trkpt lat="-33.95005198470967" lon="151.15346132568394"></trkpt><trkpt lat="-33.95005523052498" lon="151.15367765883374"></trkpt><trkpt lat="-33.950058475960425" lon="151.15389399201814"></trkpt><trkpt lat="-33.95006172101596" lon="151.15411032523716"></trkpt><trkpt lat="-33.95006496569162" lon="151.15432665849082"></trkpt><trkpt lat="-33.94988467969536" lon="151.15433055167782"></trkpt><trkpt lat="-33.949704393693416" lon="151.15433444483023"></trkpt><trkpt lat="-33.94952410768578" lon="151.154338337948"></trkpt><trkpt lat="-33.94934382167248" lon="151.15434223103114"></trkpt><trkpt lat="-33.94916353565348" lon="151.1543461240797"></trkpt><trkpt lat="-33.948983249628796" lon="151.15435001709363"></trkpt><trkpt lat="-33.94880296359845" lon="151.15435391007298"></trkpt><trkpt lat="-33.948622677562405" lon="151.1543578030177"></trkpt><trkpt lat="-33.948442391520686" lon="151.15436169592775"></trkpt><trkpt lat="-33.948262105473276" lon="151.15436558880327"></trkpt><trkpt lat="-33.94808181942019" lon="151.15436948164412"></trkpt><trkpt lat="-33.94790153336142" lon="151.1543733744504"></trkpt><trkpt lat="-33.94772124729696" lon="151.15437726722206"></trkpt><trkpt lat="-33.947540961226835" lon="151.1543811599591"></trkpt><trkpt lat="-33.947360675151025" lon="151.15438505266152"></trkpt><trkpt lat="-33.947180389069516" lon="151.15438894532934"></trkpt><trkpt lat="-33.94700010298233" lon="151.15439283796255"></trkpt><trkpt lat="-33.94681981688948" lon="151.15439673056116"></trkpt><trkpt lat="-33.94663953079094" lon="151.15440062312516"></trkpt><trkpt lat="-33.9464592446867" lon="151.15440451565453"></trkpt><trkpt lat="-33.94646248854431" lon="151.1546208398297"></trkpt><trkpt lat="-33.946465732022084" lon="151.1548371640395"></trkpt><trkpt lat="-33.94646897512002" lon="151.15505348828387"></trkpt><trkpt lat="-33.94647221783811" lon="151.15526981256284"></trkpt><trkpt lat="-33.946475460176366" lon="151.1554861368764"></trkpt><trkpt lat="-33.9464787021348" lon="151.15570246122454"></trkpt><trkpt lat="-33.94648194371337" lon="151.1559187856073"></trkpt><trkpt lat="-33.94648518491213" lon="151.1561351100246"></trkpt><trkpt lat="-33.946488425731026" lon="151.1563514344765"></trkpt><trkpt lat="-33.946491666170104" lon="151.15656775896298"></trkpt><trkpt lat="-33.946494906229326" lon="151.156784083484"></trkpt><trkpt lat="-33.94649814590872" lon="151.1570004080396"></trkpt><trkpt lat="-33.94650138520827" lon="151.15721673262976"></trkpt><trkpt lat="-33.94650462412798" lon="151.15743305725448"></trkpt><trkpt lat="-33.94650786266786" lon="151.15764938191373"></trkpt></trkseg></trk></gpx>