<?xml version="1.0"?><gpx version="1.1" creator="test" xmlns="http://www.topografix.com/GPX/1/1"><trk><name>Side streets</name><trkseg><trkpt lat="-33.95000000000001" lon="151.15"></trkpt><trkpt lat="-33.949819714442455" lon="151.15000390230082"></trkpt><trkpt lat="-33.94963942887924" lon="151.1500078045669"></trkpt><trkpt lat="-33.94945914331031" lon="151.15001170679832"></trkpt><trkpt lat="-33.949278857735706" lon="151.15001560899506"></trkpt><trkpt lat="-33.94909857215543" lon="151.15001951115707"></trkpt><trkpt lat="-33.94891828656946" lon="151.1500234132844"></trkpt><trkpt lat="-33.94873800097782" lon="151.15002731537706"></trkpt><trkpt lat="-33.94855771538047" lon="151.150031217435"></trkpt><trkpt lat="-33.94837742977745" lon="151.15003511945824"></trkpt><trkpt lat="-33.94819714416874" lon="151.1500390214468"></trkpt><trkpt lat="-33.948016858554354" lon="151.15004292340066"></trkpt><trkpt lat="-33.947836572934285" lon="151.15004682531983"></trkpt><trkpt lat="-33.94765628730853" lon="151.15005072720433"></trkpt><trkpt lat="-33.94747600167708" lon="151.15005462905413"></trkpt><trkpt lat="-33.94729571603996" lon="151.15005853086922"></trkpt><trkpt lat="-33.94711543039715" lon="151.1500624326496"></trkpt><trkpt lat="-33.946935144748664" lon="151.15006633439535"></trkpt><trkpt lat="-33.94675485909449" lon="151.15007023610636"></trkpt><trkpt lat="-33.94657457343462" lon="151.1500741377827"></trkpt><trkpt lat="-33.94639428776908" lon="151.15007803942433"></trkpt><trkpt lat="-33.94621400209785" lon="151.1500819410313"></trkpt><trkpt lat="-33.946033716420935" lon="151.15008584260354"></trkpt><trkpt lat="-33.94585343073834" lon="151.15008974414113"></trkpt><trkpt lat="-33.945673145050066" lon="151.15009364564403"></trkpt><trkpt lat="-33.9454928593561" lon="151.1500975471122"></trkpt><trkpt lat="-33.94531257365646" lon="151.15010144854574"></trkpt><trkpt lat="-33.94513228795112" lon="151.15010534994454"></trkpt><trkpt lat="-33.9449520022401" lon="151.1501092513087"></trkpt><trkpt lat="-33.94477171652341" lon="151.15011315263814"></trkpt><trkpt lat="-33.944591430801026" lon="151.1501170539329"></trkpt></trkseg></trk><trk><name>Across Main Road</name><trkseg><trkpt lat="-33.948229643814024" lon="151.15220230339241"></trkpt><trkpt lat="-33.94823289168932" lon="151.15241863177764"></trkpt><trkpt lat="-33.94823613918477" lon="151.1526349601975"></trkpt><trkpt lat="-33.94823938630035" lon="151.15285128865202"></trkpt><trkpt lat="-33.94824263303606" lon="151.15306761714118"></trkpt><trkpt lat="-33.94824587939192" lon="151.15328394566495"></trkpt><trkpt lat="-33.948249125367916" lon="151.15350027422338"></trkpt><trkpt lat="-33.94825237096405" lon="151.15371660281642"></trkpt><trkpt lat="-33.94825561618032" lon="151.15393293144407"></trkpt><trkpt lat="-33.94825886101673" lon="151.15414926010635"></trkpt><trkpt lat="-33.948262105473276" lon="151.15436558880327"></trkpt><trkpt lat="-33.948265349549956" lon="151.15458191753476"></trkpt><trkpt lat="-33.94826859324679" lon="151.15479824630089"></trkpt><trkpt lat="-33.948271836563734" lon="151.15501457510163"></trkpt><trkpt lat="-33.94827507950083" lon="151.15523090393697"></trkpt><trkpt lat="-33.94827832205807" lon="151.15544723280686"></trkpt><trkpt lat="-33.94828156423544" lon="151.15566356171138"></trkpt><trkpt lat="-33.948284806032945" lon="151.15587989065048"></trkpt><trkpt lat="-33.94828804745059" lon="151.15609621962417"></trkpt><trkpt lat="-33.94829128848836" lon="151.15631254863243"></trkpt><trkpt lat="-33.94829452914628" lon="151.15652887767527"></trkpt><trkpt lat="-33.94847481541265" lon="151.15652498935634"></trkpt><trkpt lat="-33.948655101673346" lon="151.15652110100288"></trkpt><trkpt lat="-33.94883538792836" lon="151.15651721261483"></trkpt><trkpt lat="-33.94901567417769" lon="151.1565133241922"></trkpt><trkpt lat="-33.94919596042132" lon="151.156509435735"></trkpt><trkpt lat="-33.949199200808785" lon="151.15672576709073"></trkpt><trkpt lat="-33.949202440816364" lon="151.15694209848107"></trkpt><trkpt lat="-33.949205680444074" lon="151.15715842990596"></trkpt><trkpt lat="-33.949208919691905" lon="151.1573747613654"></trkpt><trkpt lat="-33.94921215855987" lon="151.1575910928594"></trkpt></trkseg></trk></gpx>